BEIDOU-3 M16 (C35)      
1 43647U 18078A   25012.17970907 -.00000097  00000+0  00000+0 0  9993
2 43647  54.5511 318.1850 0007685  12.5091 347.5060  1.86232209 42450
BEIDOU-3 M15 (C34)      
1 43648U 18078B   25013.38278931 -.00000095  00000+0  00000+0 0  9994
2 43648  54.5457 318.1453 0004494  13.1486 346.8624  1.86232059 42506
BEIDOU-3 G1 (C59)       
1 43683U 18085A   25014.51015227 -.00000281  00000+0  00000+0 0  9991
2 43683   2.7186 102.3597 0001016  72.1671 263.3839  1.00272617 22856
BEIDOU-3 M17 (C36)      
1 43706U 18093A   25014.07303437  .00000053  00000+0  00000+0 0  9996
2 43706  54.1955 199.9087 0006043 299.4855  60.4603  1.86228413 41873
BEIDOU-3 M18 (C37)      
1 43707U 18093B   25012.86275794  .00000070  00000+0  00000+0 0  9995
2 43707  54.1969 199.9417 0005941 344.1532  15.8433  1.86229833 41841
BEIDOU-3 IGSO-1 (C38)   
1 44204U 19023A   25014.60623220 -.00000201  00000+0  00000+0 0  9994
2 44204  57.9535  43.0133 0023637 225.2348 182.6027  1.00291142  2010
BEIDOU-2 G8 (C01)       
1 44231U 19027A   25014.49339412 -.00000250  00000+0  00000+0 0  9996
2 44231   2.0046  74.8820 0005055 208.4029 153.0271  1.00273340 20884
BEIDOU-3 IGSO-2 (C39)   
1 44337U 19035A   25014.18537406 -.00000129  00000+0  00000+0 0  9996
2 44337  55.1983 163.4171 0035709 197.8513 297.5916  1.00273911 20460
